{
    "week": 293,
    "satellites": [
        {
            "Name": "GSAT0208 (GALILEO 11)",
            "Line1": "1 41175U 15079B   24320.88726333  .00000044  00000+0  00000+0 0  9997",
            "Line2": "2 41175  55.4961 117.1429 0001425   9.8908 350.0938  1.70474174 55330",
            "SatelliteNumber": "41175",
            "Classification": "U",
            "LaunchYear": "15",
            "LaunchNumber": "079",
            "PieceOfLaunch": "B",
            "EpochYear": "24",
            "EpochDay": 320.88726333,
            "FirstDerivativeMeanMotion": 4.4e-07,
            "SecondDerivativeMeanMotion": "00000+0",
            "BSTAR": "00000+0",
            "SetNumber": "999",
            "Inclination": 55.4961,
            "RAAN": 117.1429,
            "Eccentricity": 0.0001425,
            "ArgumentOfPerigee": 9.8908,
            "MeanAnomaly": 350.0938,
            "MeanMotion": 1.70474174,
            "RevolutionNumber": "5533"
        },
        {
            "Name": "GSAT0211 (GALILEO 14)",
            "Line1": "1 41549U 16030A   24322.18356293 -.00000005  00000+0  00000+0 0  9997",
            "Line2": "2 41549  55.2995 237.5679 0003663 351.9838   8.0500  1.70472908 52833",
            "SatelliteNumber": "41549",
            "Classification": "U",
            "LaunchYear": "16",
            "LaunchNumber": "030",
            "PieceOfLaunch": "A",
            "EpochYear": "24",
            "EpochDay": 322.18356293,
            "FirstDerivativeMeanMotion": -5e-08,
            "SecondDerivativeMeanMotion": "00000+0",
            "BSTAR": "00000+0",
            "SetNumber": "999",
            "Inclination": 55.2995,
            "RAAN": 237.5679,
            "Eccentricity": 0.0003663,
            "ArgumentOfPerigee": 351.9838,
            "MeanAnomaly": 8.05,
            "MeanMotion": 1.70472908,
            "RevolutionNumber": "5283"
        },
        {
            "Name": "GSAT0210 (GALILEO 13)",
            "Line1": "1 41550U 16030B   24321.26836720 -.00000004  00000+0  00000+0 0  9994",
            "Line2": "2 41550  55.2990 237.5911 0002428 247.6582 112.3500  1.70473142 52812",
            "SatelliteNumber": "41550",
            "Classification": "U",
            "LaunchYear": "16",
            "LaunchNumber": "030",
            "PieceOfLaunch": "B",
            "EpochYear": "24",
            "EpochDay": 321.2683672,
            "FirstDerivativeMeanMotion": -4e-08,
            "SecondDerivativeMeanMotion": "00000+0",
            "BSTAR": "00000+0",
            "SetNumber": "999",
            "Inclination": 55.299,
            "RAAN": 237.5911,
            "Eccentricity": 0.0002428,
            "ArgumentOfPerigee": 247.6582,
            "MeanAnomaly": 112.35,
            "MeanMotion": 1.70473142,
            "RevolutionNumber": "5281"
        },
        {
            "Name": "GSAT0207 (GALILEO 15)",
            "Line1": "1 41859U 16069A   24321.54750723  .00000039  00000+0  00000+0 0  9994",
            "Line2": "2 41859  55.1638 117.0915 0001689 316.3331  43.6310  1.70474249 49553",
            "SatelliteNumber": "41859",
            "Classification": "U",
            "LaunchYear": "16",
            "LaunchNumber": "069",
            "PieceOfLaunch": "A",
            "EpochYear": "24",
            "EpochDay": 321.54750723,
            "FirstDerivativeMeanMotion": 3.9e-07,
            "SecondDerivativeMeanMotion": "00000+0",
            "BSTAR": "00000+0",
            "SetNumber": "999",
            "Inclination": 55.1638,
            "RAAN": 117.0915,
            "Eccentricity": 0.0001689,
            "ArgumentOfPerigee": 316.3331,
            "MeanAnomaly": 43.631,
            "MeanMotion": 1.70474249,
            "RevolutionNumber": "4955"
        },
        {
            "Name": "GSAT0212 (GALILEO 16)",
            "Line1": "1 41860U 16069B   24323.16136946  .00000033  00000+0  00000+0 0  9995",
            "Line2": "2 41860  55.1623 117.0428 0001962  35.0412 324.9436  1.70474543 49839",
            "SatelliteNumber": "41860",
            "Classification": "U",
            "LaunchYear": "16",
            "LaunchNumber": "069",
            "PieceOfLaunch": "B",
            "EpochYear": "24",
            "EpochDay": 323.16136946,
            "FirstDerivativeMeanMotion": 3.3e-07,
            "SecondDerivativeMeanMotion": "00000+0",
            "BSTAR": "00000+0",
            "SetNumber": "999",
            "Inclination": 55.1623,
            "RAAN": 117.0428,
            "Eccentricity": 0.0001962,
            "ArgumentOfPerigee": 35.0412,
            "MeanAnomaly": 324.9436,
            "MeanMotion": 1.70474543,
            "RevolutionNumber": "4983"
        },
        {
            "Name": "GSAT0213 (GALILEO 17)",
            "Line1": "1 41861U 16069C   24322.35651368  .00000035  00000+0  00000+0 0  9998",
            "Line2": "2 41861  55.1642 117.0721 0001810 265.7159  94.2372  1.70474791 49683",
            "SatelliteNumber": "41861",
            "Classification": "U",
            "LaunchYear": "16",
            "LaunchNumber": "069",
            "PieceOfLaunch": "C",
            "EpochYear": "24",
            "EpochDay": 322.35651368,
            "FirstDerivativeMeanMotion": 3.5e-07,
            "SecondDerivativeMeanMotion": "00000+0",
            "BSTAR": "00000+0",
            "SetNumber": "999",
            "Inclination": 55.1642,
            "RAAN": 117.0721,
            "Eccentricity": 0.000181,
            "ArgumentOfPerigee": 265.7159,
            "MeanAnomaly": 94.2372,
            "MeanMotion": 1.70474791,
            "RevolutionNumber": "4968"
        },
        {
            "Name": "GSAT0214 (GALILEO 18)",
            "Line1": "1 41862U 16069D   24323.08850810  .00000033  00000+0  00000+0 0  9991",
            "Line2": "2 41862  55.1632 117.0450 0000878 263.1178  96.8442  1.70474577 49822",
            "SatelliteNumber": "41862",
            "Classification": "U",
            "LaunchYear": "16",
            "LaunchNumber": "069",
            "PieceOfLaunch": "D",
            "EpochYear": "24",
            "EpochDay": 323.0885081,
            "FirstDerivativeMeanMotion": 3.3e-07,
            "SecondDerivativeMeanMotion": "00000+0",
            "BSTAR": "00000+0",
            "SetNumber": "999",
            "Inclination": 55.1632,
            "RAAN": 117.045,
            "Eccentricity": 8.78e-05,
            "ArgumentOfPerigee": 263.1178,
            "MeanAnomaly": 96.8442,
            "MeanMotion": 1.70474577,
            "RevolutionNumber": "4982"
        },
        {
            "Name": "GSAT0215 (GALILEO 19)",
            "Line1": "1 43055U 17079A   24321.23193026 -.00000004  00000+0  00000+0 0  9992",
            "Line2": "2 43055  55.2768 237.4138 0001921 298.2297  61.7850  1.70473689 43135",
            "SatelliteNumber": "43055",
            "Classification": "U",
            "LaunchYear": "17",
            "LaunchNumber": "079",
            "PieceOfLaunch": "A",
            "EpochYear": "24",
            "EpochDay": 321.23193026,
            "FirstDerivativeMeanMotion": -4e-08,
            "SecondDerivativeMeanMotion": "00000+0",
            "BSTAR": "00000+0",
            "SetNumber": "999",
            "Inclination": 55.2768,
            "RAAN": 237.4138,
            "Eccentricity": 0.0001921,
            "ArgumentOfPerigee": 298.2297,
            "MeanAnomaly": 61.785,
            "MeanMotion": 1.70473689,
            "RevolutionNumber": "4313"
        },
        {
            "Name": "GSAT0216 (GALILEO 20)",
            "Line1": "1 43056U 17079B   24322.11011440 -.00000004  00000+0  00000+0 0  9990",
            "Line2": "2 43056  55.2769 237.3895 0003278 298.5730  61.4337  1.70473810 43164",
            "SatelliteNumber": "43056",
            "Classification": "U",
            "LaunchYear": "17",
            "LaunchNumber": "079",
            "PieceOfLaunch": "B",
            "EpochYear": "24",
            "EpochDay": 322.1101144,
            "FirstDerivativeMeanMotion": -4e-08,
            "SecondDerivativeMeanMotion": "00000+0",
            "BSTAR": "00000+0",
            "SetNumber": "999",
            "Inclination": 55.2769,
            "RAAN": 237.3895,
            "Eccentricity": 0.0003278,
            "ArgumentOfPerigee": 298.573,
            "MeanAnomaly": 61.4337,
            "MeanMotion": 1.7047381,
            "RevolutionNumber": "4316"
        },
        {
            "Name": "GSAT0217 (GALILEO 21)",
            "Line1": "1 43057U 17079C   24322.91723933 -.00000006  00000+0  00000+0 0  9998",
            "Line2": "2 43057  55.2748 237.3658 0003083 320.5807  39.4405  1.70473709 43162",
            "SatelliteNumber": "43057",
            "Classification": "U",
            "LaunchYear": "17",
            "LaunchNumber": "079",
            "PieceOfLaunch": "C",
            "EpochYear": "24",
            "EpochDay": 322.91723933,
            "FirstDerivativeMeanMotion": -6e-08,
            "SecondDerivativeMeanMotion": "00000+0",
            "BSTAR": "00000+0",
            "SetNumber": "999",
            "Inclination": 55.2748,
            "RAAN": 237.3658,
            "Eccentricity": 0.0003083,
            "ArgumentOfPerigee": 320.5807,
            "MeanAnomaly": 39.4405,
            "MeanMotion": 1.70473709,
            "RevolutionNumber": "4316"
        }
    ]
}